{
  "norad_id": 60481,
  "name": "FLOCK 4BE-7",
  "history": [
    {
      "epoch": "2026-03-28T18:31:32.702592",
      "apogee_km": 457.52683290092773,
      "perigee_km": 452.28766455365894,
      "latitude_deg": -80.52990206445776,
      "longitude_deg": -57.79699712013826,
      "semi_major_axis_km": 6833.044248727293,
      "eccentricity": 0.00038337,
      "inclination_deg": 97.3778,
      "raan_deg": 170.3532,
      "arg_perigee_deg": 168.1451,
      "mean_anomaly_deg": 191.9884,
      "mean_motion_rev_day": 15.37026702
    },
    {
      "epoch": "2026-03-29T03:54:01.784160",
      "apogee_km": 457.4278579758211,
      "perigee_km": 452.2293377489668,
      "latitude_deg": -79.57795169915136,
      "longitude_deg": -20.298017600085586,
      "semi_major_axis_km": 6832.965597862393,
      "eccentricity": 0.0003804,
      "inclination_deg": 97.3777,
      "raan_deg": 170.7455,
      "arg_perigee_deg": 166.7391,
      "mean_anomaly_deg": 193.3954,
      "mean_motion_rev_day": 15.3705324
    }
  ]
}